{
  "norad_id": 66348,
  "name": "STARLINK-35849",
  "history": [
    {
      "epoch": "2026-03-28T13:51:14.738688Z",
      "apogee_km": 476.05615956777365,
      "perigee_km": 474.3291204984844,
      "latitude_deg": 1.0068914352785458e-05,
      "longitude_deg": 111.1901930752322,
      "height_km": 475.73105534144287,
      "semi_major_axis_km": 6853.329640033128,
      "eccentricity": 0.000126,
      "inclination_deg": 53.1586,
      "raan_deg": 144.9973,
      "arg_perigee_deg": 65.3839,
      "mean_anomaly_deg": 294.7293,
      "mean_motion_rev_day": 15.30207512
    },
    {
      "epoch": "2026-03-29T03:57:43.363008Z",
      "apogee_km": 476.05864440189725,
      "perigee_km": 474.26582132258045,
      "latitude_deg": -1.458383798691999e-05,
      "longitude_deg": -103.74358634218193,
      "height_km": 475.99566373250246,
      "semi_major_axis_km": 6853.299232862239,
      "eccentricity": 0.0001308,
      "inclination_deg": 53.1578,
      "raan_deg": 142.2622,
      "arg_perigee_deg": 85.8821,
      "mean_anomaly_deg": 274.2329,
      "mean_motion_rev_day": 15.30217696
    },
    {
      "epoch": "2026-03-30T03:28:31.425024Z",
      "apogee_km": 476.05998369941335,
      "perigee_km": 474.265789789064,
      "latitude_deg": -3.863400106270714e-05,
      "longitude_deg": -101.96042106407498,
      "height_km": 475.94761943300915,
      "semi_major_axis_km": 6853.299886744238,
      "eccentricity": 0.0001309,
      "inclination_deg": 53.1584,
      "raan_deg": 137.7113,
      "arg_perigee_deg": 82.7543,
      "mean_anomaly_deg": 277.3606,
      "mean_motion_rev_day": 15.30217477
    },
    {
      "epoch": "2026-03-30T03:28:31.425888Z",
      "apogee_km": 476.05977810041713,
      "perigee_km": 474.2659953880602,
      "latitude_deg": -3.588841775502464e-05,
      "longitude_deg": -101.96042262823626,
      "height_km": 475.9476453634729,
      "semi_major_axis_km": 6853.299886744238,
      "eccentricity": 0.00013087,
      "inclination_deg": 53.1584,
      "raan_deg": 137.7113,
      "arg_perigee_deg": 82.7543,
      "mean_anomaly_deg": 277.3606,
      "mean_motion_rev_day": 15.30217477
    },
    {
      "epoch": "2026-03-30T12:52:50.741760Z",
      "apogee_km": 476.12684283495037,
      "perigee_km": 474.3201599395752,
      "latitude_deg": -2.7496597157299618e-05,
      "longitude_deg": 114.75723664105938,
      "height_km": 475.99983807642104,
      "semi_major_axis_km": 6853.360501387262,
      "eccentricity": 0.00013181,
      "inclination_deg": 53.1589,
      "raan_deg": 135.8957,
      "arg_perigee_deg": 82.2654,
      "mean_anomaly_deg": 277.8496,
      "mean_motion_rev_day": 15.30197176
    },
    {
      "epoch": "2026-03-31T12:23:38.648256Z",
      "apogee_km": 475.9782454720662,
      "perigee_km": 474.461734637307,
      "latitude_deg": 3.3422744022595906e-05,
      "longitude_deg": 116.54071567091967,
      "height_km": 475.8117422721829,
      "semi_major_axis_km": 6853.356990054686,
      "eccentricity": 0.00011064,
      "inclination_deg": 53.1586,
      "raan_deg": 131.3444,
      "arg_perigee_deg": 66.1561,
      "mean_anomaly_deg": 293.9556,
      "mean_motion_rev_day": 15.30198352
    },
    {
      "epoch": "2026-04-01T08:46:20.394048Z",
      "apogee_km": 476.06038192651704,
      "perigee_km": 474.35526973385004,
      "latitude_deg": -1.313292505309447e-06,
      "longitude_deg": 166.08664460762685,
      "height_km": 475.66928408401714,
      "semi_major_axis_km": 6853.344825830183,
      "eccentricity": 0.0001244,
      "inclination_deg": 53.1589,
      "raan_deg": 127.4012,
      "arg_perigee_deg": 59.1815,
      "mean_anomaly_deg": 300.9308,
      "mean_motion_rev_day": 15.30202426
    },
    {
      "epoch": "2026-04-02T19:15:30.315744Z",
      "apogee_km": 476.0682024852176,
      "perigee_km": 474.1287368473022,
      "latitude_deg": 1.0274593506177478e-05,
      "longitude_deg": 0.7011208196668876,
      "height_km": 476.00492693089393,
      "semi_major_axis_km": 6853.23546966626,
      "eccentricity": 0.0001415,
      "inclination_deg": 53.1594,
      "raan_deg": 120.7233,
      "arg_perigee_deg": 90.5101,
      "mean_anomaly_deg": 269.6062,
      "mean_motion_rev_day": 15.30239052
    },
    {
      "epoch": "2026-04-02T19:15:30.316608Z",
      "apogee_km": 476.0681339528637,
      "perigee_km": 474.128805379657,
      "latitude_deg": 1.119730709692267e-05,
      "longitude_deg": 0.7011178972850812,
      "height_km": 476.00492632077965,
      "semi_major_axis_km": 6853.23546966626,
      "eccentricity": 0.00014149,
      "inclination_deg": 53.1594,
      "raan_deg": 120.7233,
      "arg_perigee_deg": 90.5101,
      "mean_anomaly_deg": 269.6062,
      "mean_motion_rev_day": 15.30239052
    },
    {
      "epoch": "2026-04-03T10:56:02.260608Z",
      "apogee_km": 475.8945445737854,
      "perigee_km": 474.5588239917188,
      "latitude_deg": 8.228074810457638e-06,
      "longitude_deg": 121.89324423639236,
      "height_km": 475.8708307256238,
      "semi_major_axis_km": 6853.363684282752,
      "eccentricity": 9.745e-05,
      "inclination_deg": 53.1593,
      "raan_deg": 117.6923,
      "arg_perigee_deg": 67.6139,
      "mean_anomaly_deg": 292.4965,
      "mean_motion_rev_day": 15.3019611
    },
    {
      "epoch": "2026-04-04T08:52:47.320896Z",
      "apogee_km": 475.968084981173,
      "perigee_km": 474.3697569742817,
      "latitude_deg": -8.082399968944873e-06,
      "longitude_deg": 147.55529645449516,
      "height_km": 475.8466532833913,
      "semi_major_axis_km": 6853.305920977727,
      "eccentricity": 0.00011661,
      "inclination_deg": 53.1594,
      "raan_deg": 113.4434,
      "arg_perigee_deg": 73.9841,
      "mean_anomaly_deg": 286.1288,
      "mean_motion_rev_day": 15.30215456
    },
    {
      "epoch": "2026-04-05T09:57:38.858112Z",
      "apogee_km": 476.2472110383669,
      "perigee_km": 474.20463475282577,
      "latitude_deg": -8.712189893209929e-06,
      "longitude_deg": 125.4573168900734,
      "height_km": 475.8713465174052,
      "semi_major_axis_km": 6853.362922895596,
      "eccentricity": 0.00014902,
      "inclination_deg": 53.1588,
      "raan_deg": 108.5902,
      "arg_perigee_deg": 75.6983,
      "mean_anomaly_deg": 284.4183,
      "mean_motion_rev_day": 15.30196365
    },
    {
      "epoch": "2026-04-05T17:47:54.667680Z",
      "apogee_km": 476.1930305137312,
      "perigee_km": 474.18226506207066,
      "latitude_deg": 9.679392293196552e-06,
      "longitude_deg": 6.050672885062356,
      "height_km": 475.9809749549344,
      "semi_major_axis_km": 6853.324647787901,
      "eccentricity": 0.0001467,
      "inclination_deg": 53.1589,
      "raan_deg": 107.0713,
      "arg_perigee_deg": 84.0412,
      "mean_anomaly_deg": 276.0756,
      "mean_motion_rev_day": 15.30209184
    },
    {
      "epoch": "2026-04-06T06:20:20.232384Z",
      "apogee_km": 477.0667954038918,
      "perigee_km": 473.162909018798,
      "latitude_deg": 2.7188589833401235e-05,
      "longitude_deg": 175.00414786260922,
      "height_km": 475.77595569165845,
      "semi_major_axis_km": 6853.251852211344,
      "eccentricity": 0.00028482,
      "inclination_deg": 53.1583,
      "raan_deg": 104.6463,
      "arg_perigee_deg": 83.1,
      "mean_anomaly_deg": 277.0325,
      "mean_motion_rev_day": 15.30233565
    },
    {
      "epoch": "2026-04-07T16:49:30.145440Z",
      "apogee_km": 477.0143791215078,
      "perigee_km": 473.5301058626246,
      "latitude_deg": 1.878515813937575e-05,
      "longitude_deg": 9.617540053825016,
      "height_km": 475.67189249643826,
      "semi_major_axis_km": 6853.4092424920655,
      "eccentricity": 0.0002542,
      "inclination_deg": 53.159,
      "raan_deg": 97.9673,
      "arg_perigee_deg": 73.4372,
      "mean_anomaly_deg": 286.6908,
      "mean_motion_rev_day": 15.30180852
    },
    {
      "epoch": "2026-04-08T08:30:02.596608Z",
      "apogee_km": 476.6409240398971,
      "perigee_km": 473.87105672890357,
      "latitude_deg": 2.89747491275585e-05,
      "longitude_deg": 130.80705513822303,
      "height_km": 475.87994798703556,
      "semi_major_axis_km": 6853.3929903844,
      "eccentricity": 0.00020208,
      "inclination_deg": 53.1579,
      "raan_deg": 94.9358,
      "arg_perigee_deg": 78.6365,
      "mean_anomaly_deg": 281.4863,
      "mean_motion_rev_day": 15.30186295
    },
    {
      "epoch": "2026-04-09T15:51:05.999040Z",
      "apogee_km": 476.5120319040734,
      "perigee_km": 473.78305399907003,
      "latitude_deg": 1.5650958411780983e-05,
      "longitude_deg": 13.188526929905354,
      "height_km": 475.9159624016008,
      "semi_major_axis_km": 6853.284542951572,
      "eccentricity": 0.0001991,
      "inclination_deg": 53.1578,
      "raan_deg": 88.869,
      "arg_perigee_deg": 84.5997,
      "mean_anomaly_deg": 275.5231,
      "mean_motion_rev_day": 15.30222616
    },
    {
      "epoch": "2026-04-10T12:13:49.715616Z",
      "apogee_km": 476.28822735215454,
      "perigee_km": 474.291138816704,
      "latitude_deg": 2.8390272314264248e-05,
      "longitude_deg": 62.72615382401419,
      "height_km": 476.1889634422475,
      "semi_major_axis_km": 6853.426683084429,
      "eccentricity": 0.0001457,
      "inclination_deg": 53.1583,
      "raan_deg": 84.9257,
      "arg_perigee_deg": 90.0953,
      "mean_anomaly_deg": 270.0215,
      "mean_motion_rev_day": 15.30175011
    },
    {
      "epoch": "2026-04-11T08:36:30.472128Z",
      "apogee_km": 475.9455477605725,
      "perigee_km": 474.32954562246323,
      "latitude_deg": -5.31523775542793e-05,
      "longitude_deg": 112.27537831358526,
      "height_km": 475.9981234001065,
      "semi_major_axis_km": 6853.274546691518,
      "eccentricity": 0.0001179,
      "inclination_deg": 53.1585,
      "raan_deg": 80.9817,
      "arg_perigee_deg": 87.3412,
      "mean_anomaly_deg": 272.7723,
      "mean_motion_rev_day": 15.30225964
    }
  ]
}